[{"OBJECT_NAME":"BUFENG 1B","OBJECT_ID":"2019-032B","EPOCH":"2026-03-09T19:57:27.457920","MEAN_MOTION":15.25619535,"ECCENTRICITY":0.00242037,"INCLINATION":44.9701,"RA_OF_ASC_NODE":192.0248,"ARG_OF_PERICENTER":123.8847,"MEAN_ANOMALY":236.4342,"EPHEMERIS_TYPE":0,"CLASSIFICATION_TYPE":"U","NORAD_CAT_ID":44311,"ELEMENT_SET_NO":999,"REV_AT_EPOCH":37256,"BSTAR":0.00059375374,"MEAN_MOTION_DOT":0.00015236,"MEAN_MOTION_DDOT":0},{"OBJECT_NAME":"STARLINK-35319","OBJECT_ID":"2025-216K","EPOCH":"2026-03-09T22:04:51.570912","MEAN_MOTION":15.30218816,"ECCENTRICITY":0.00014025,"INCLINATION":53.1603,"RA_OF_ASC_NODE":331.4815,"ARG_OF_PERICENTER":81.3129,"MEAN_ANOMALY":278.8031,"EPHEMERIS_TYPE":0,"CLASSIFICATION_TYPE":"U","NORAD_CAT_ID":65743,"ELEMENT_SET_NO":999,"REV_AT_EPOCH":2663,"BSTAR":0.00099170095,"MEAN_MOTION_DOT":0.00029145,"MEAN_MOTION_DDOT":0}]
